[{"OBJECT_NAME":"STARLINK-32374","OBJECT_ID":"2024-224G","EPOCH":"2026-03-09T06:18:43.497216","MEAN_MOTION":15.27589886,"ECCENTRICITY":0.00020188,"INCLINATION":43,"RA_OF_ASC_NODE":160.6086,"ARG_OF_PERICENTER":256.0897,"MEAN_ANOMALY":103.973,"EPHEMERIS_TYPE":0,"CLASSIFICATION_TYPE":"U","NORAD_CAT_ID":62145,"ELEMENT_SET_NO":999,"REV_AT_EPOCH":7241,"BSTAR":0.001285355,"MEAN_MOTION_DOT":0.00035289,"MEAN_MOTION_DDOT":0},{"OBJECT_NAME":"FLOCK 4G-5","OBJECT_ID":"2025-009BG","EPOCH":"2026-03-09T10:57:11.608704","MEAN_MOTION":15.28679529,"ECCENTRICITY":0.00020946,"INCLINATION":97.4058,"RA_OF_ASC_NODE":151.2478,"ARG_OF_PERICENTER":314.5072,"MEAN_ANOMALY":45.5996,"EPHEMERIS_TYPE":0,"CLASSIFICATION_TYPE":"U","NORAD_CAT_ID":62663,"ELEMENT_SET_NO":999,"REV_AT_EPOCH":6369,"BSTAR":0.00040688068,"MEAN_MOTION_DOT":0.00011278,"MEAN_MOTION_DDOT":0}]
